{
  "$schema": "../../../schema/volumes.json",
  "type": "FeatureCollection",
  "features": [
    {
      "type": "Feature",
      "id": "R1",
      "properties": {
        "floor": 0,
        "ceiling": 999
      },
      "geometry": {
        "type": "MultiPolygon",
        "coordinates": [
          [
            [
              [
                30.594722,
                59.905
              ],
              [
                30.595278,
                61.257778
              ],
              [
                32.617778,
                61.268611
              ],
              [
                33.919633,
                61.178098
              ],
              [
                35.533333,
                61.066667
              ],
              [
                35.55,
                60.966667
              ],
              [
                35.483333,
                60.833333
              ],
              [
                35.15,
                60.45
              ],
              [
                35.35,
                59.833333
              ],
              [
                35.419722,
                59.652222
              ],
              [
                31.946667,
                59.614167
              ],
              [
                31.157778,
                59.681111
              ],
              [
                30.594722,
                59.905
              ]
            ]
          ]
        ]
      }
    },
    {
      "type": "Feature",
      "id": "R2",
      "properties": {
        "floor": 0,
        "ceiling": 999
      },
      "geometry": {
        "type": "MultiPolygon",
        "coordinates": [
          [
            [
              [
                34.566667,
                58.2
              ],
              [
                33.766667,
                57.871111
              ],
              [
                32.55,
                57.35
              ],
              [
                31.071389,
                57.762778
              ],
              [
                30.66,
                57.972778
              ],
              [
                30.514167,
                58.356667
              ],
              [
                30.319444,
                58.5025
              ],
              [
                30.663056,
                58.896111
              ],
              [
                30.879167,
                59.32
              ],
              [
                31.147222,
                59.502222
              ],
              [
                31.157778,
                59.681111
              ],
              [
                31.946667,
                59.614167
              ],
              [
                35.419722,
                59.652222
              ],
              [
                35.816667,
                58.583333
              ],
              [
                34.566667,
                58.2
              ]
            ]
          ]
        ]
      }
    },
    {
      "type": "Feature",
      "id": "R3",
      "properties": {
        "floor": 0,
        "ceiling": 999
      },
      "geometry": {
        "type": "MultiPolygon",
        "coordinates": [
          [
            [
              [
                27.602558,
                58.053149
              ],
              [
                27.59931,
                58.07795
              ],
              [
                27.593451,
                58.096711
              ],
              [
                27.58564,
                58.11346
              ],
              [
                27.560898,
                58.138919
              ],
              [
                27.5329,
                58.16505
              ],
              [
                27.513371,
                58.180468
              ],
              [
                27.480821,
                58.215308
              ],
              [
                27.480821,
                58.23206
              ],
              [
                27.48408,
                58.25953
              ],
              [
                27.48798,
                58.282311
              ],
              [
                27.49514,
                58.303087
              ],
              [
                27.514722,
                58.329444
              ],
              [
                27.55,
                58.38
              ],
              [
                27.496111,
                58.488611
              ],
              [
                27.3975,
                58.698333
              ],
              [
                27.36,
                58.78
              ],
              [
                27.382778,
                58.800278
              ],
              [
                27.467778,
                58.843333
              ],
              [
                27.59043,
                58.894131
              ],
              [
                27.59966,
                58.91145
              ],
              [
                27.615951,
                58.93186
              ],
              [
                27.65071,
                58.95813
              ],
              [
                27.69117,
                58.972937
              ],
              [
                27.7262,
                58.98468
              ],
              [
                27.73134,
                59.001802
              ],
              [
                27.731218,
                59.01892
              ],
              [
                27.747931,
                59.035722
              ],
              [
                27.771111,
                59.051389
              ],
              [
                27.770091,
                59.066299
              ],
              [
                27.780028,
                59.08682
              ],
              [
                27.794059,
                59.106653
              ],
              [
                27.800858,
                59.125211
              ],
              [
                27.81393,
                59.14318
              ],
              [
                27.844899,
                59.157027
              ],
              [
                27.863481,
                59.17141
              ],
              [
                27.889167,
                59.186389
              ],
              [
                27.88678,
                59.203153
              ],
              [
                27.889469,
                59.22028
              ],
              [
                27.89766,
                59.236723
              ],
              [
                27.91602,
                59.25428
              ],
              [
                27.94246,
                59.26921
              ],
              [
                27.978531,
                59.27718
              ],
              [
                28.006111,
                59.279167
              ],
              [
                28.045081,
                59.29193
              ],
              [
                28.08421,
                59.291951
              ],
              [
                28.12179,
                59.293301
              ],
              [
                28.15292,
                59.304679
              ],
              [
                28.180378,
                59.310631
              ],
              [
                28.15875,
                59.322843
              ],
              [
                28.17866,
                59.337211
              ],
              [
                28.201098,
                59.355028
              ],
              [
                28.2125,
                59.363611
              ],
              [
                29.265,
                59.317778
              ],
              [
                30.289722,
                59.601389
              ],
              [
                31.157778,
                59.681111
              ],
              [
                31.147222,
                59.502222
              ],
              [
                30.879167,
                59.32
              ],
              [
                30.663056,
                58.896111
              ],
              [
                30.319444,
                58.5025
              ],
              [
                29.829167,
                58.5125
              ],
              [
                29.534444,
                58.392778
              ],
              [
                29.134444,
                58.175278
              ],
              [
                28.782778,
                58.191111
              ],
              [
                27.609444,
                58.038611
              ],
              [
                27.602558,
                58.053149
              ]
            ]
          ]
        ]
      }
    },
    {
      "type": "Feature",
      "id": "R4",
      "properties": {
        "floor": 0,
        "ceiling": 999
      },
      "geometry": {
        "type": "MultiPolygon",
        "coordinates": [
          [
            [
              [
                28.211161,
                59.370718
              ],
              [
                28.207251,
                59.388358
              ],
              [
                28.19033,
                59.40413
              ],
              [
                28.159831,
                59.412861
              ],
              [
                28.13502,
                59.42788
              ],
              [
                28.109141,
                59.446891
              ],
              [
                28.099444,
                59.456667
              ],
              [
                28.07415,
                59.464433
              ],
              [
                28.045099,
                59.472851
              ],
              [
                28.043333,
                59.471667
              ],
              [
                27.636667,
                59.611667
              ],
              [
                26.0781,
                59.85152
              ],
              [
                25.975,
                59.866667
              ],
              [
                25.866667,
                59.883333
              ],
              [
                26.111667,
                59.975
              ],
              [
                26.456944,
                60.099722
              ],
              [
                26.55,
                60.133333
              ],
              [
                27.293056,
                60.200278
              ],
              [
                27.352790996828837,
                60.208695467969072
              ],
              [
                27.456667,
                60.223333
              ],
              [
                27.628056,
                60.331667
              ],
              [
                27.725833,
                60.391667
              ],
              [
                27.689376918174052,
                60.429103817964943
              ],
              [
                27.685241,
                60.433351
              ],
              [
                27.746908,
                60.45063
              ],
              [
                27.783022,
                60.538468
              ],
              [
                27.893489,
                60.618039
              ],
              [
                28.528675,
                60.955958
              ],
              [
                28.656138,
                60.951824
              ],
              [
                28.73049,
                61.055163
              ],
              [
                28.806968,
                61.096499
              ],
              [
                28.819714,
                61.124401
              ],
              [
                28.957798,
                61.152302
              ],
              [
                29.240339,
                61.272175
              ],
              [
                29.329563,
                61.35278
              ],
              [
                29.444167,
                61.424444
              ],
              [
                29.46,
                61.433333
              ],
              [
                29.503277,
                61.461387
              ],
              [
                29.496479,
                61.492472
              ],
              [
                29.586213,
                61.494456
              ],
              [
                30.595278,
                61.257778
              ],
              [
                30.594722,
                59.905
              ],
              [
                31.157778,
                59.681111
              ],
              [
                30.289722,
                59.601389
              ],
              [
                29.265,
                59.317778
              ],
              [
                28.2125,
                59.363611
              ],
              [
                28.201098,
                59.355028
              ],
              [
                28.211161,
                59.370718
              ]
            ]
          ]
        ]
      }
    },
    {
      "type": "Feature",
      "id": "R5",
      "properties": {
        "floor": 0,
        "ceiling": 999
      },
      "geometry": {
        "type": "MultiPolygon",
        "coordinates": [
          [
            [
              [
                29.735768,
                61.574481
              ],
              [
                29.832299,
                61.662444
              ],
              [
                30.041678,
                61.768263
              ],
              [
                30.070229,
                61.818527
              ],
              [
                30.157243,
                61.859532
              ],
              [
                30.242222,
                61.911667
              ],
              [
                30.738426,
                62.228782
              ],
              [
                30.865136526247536,
                62.295892676024501
              ],
              [
                31.1945,
                62.470336
              ],
              [
                31.373572,
                62.665389
              ],
              [
                31.44632,
                62.790688
              ],
              [
                31.589019,
                62.908236
              ],
              [
                31.44632,
                63.032242
              ],
              [
                31.267248,
                63.107163
              ],
              [
                31.239268,
                63.218253
              ],
              [
                31.174167,
                63.240833
              ],
              [
                30.780849,
                63.406234
              ],
              [
                30.479974,
                63.468803
              ],
              [
                29.971944,
                63.757222
              ],
              [
                30.248532,
                63.822012
              ],
              [
                30.322593,
                63.920911
              ],
              [
                30.517004,
                64.03192
              ],
              [
                30.549406,
                64.132837
              ],
              [
                30.466087,
                64.205497
              ],
              [
                30.510729,
                64.221473
              ],
              [
                30.481911,
                64.261816
              ],
              [
                30.211924,
                64.351101
              ],
              [
                30.125468,
                64.359038
              ],
              [
                30.046595,
                64.401365
              ],
              [
                30.058101,
                64.453107
              ],
              [
                29.987002,
                64.538362
              ],
              [
                29.989965,
                64.59649
              ],
              [
                30.149938,
                64.639117
              ],
              [
                30.034402,
                64.735998
              ],
              [
                30.093651,
                64.769583
              ],
              [
                30.037364,
                64.794126
              ],
              [
                29.740748,
                64.791219
              ],
              [
                29.648171,
                64.865494
              ],
              [
                29.611141,
                64.930081
              ],
              [
                29.626944,
                65.060556
              ],
              [
                29.735121,
                65.092517
              ],
              [
                29.899504,
                65.102851
              ],
              [
                29.817312,
                65.145478
              ],
              [
                29.896343,
                65.193273
              ],
              [
                29.880536,
                65.210065
              ],
              [
                29.76041,
                65.230733
              ],
              [
                29.637123,
                65.232025
              ],
              [
                29.596027,
                65.263026
              ],
              [
                29.735121,
                65.343114
              ],
              [
                29.728798,
                65.473579
              ],
              [
                29.861569,
                65.561418
              ],
              [
                29.716153,
                65.636338
              ],
              [
                30.003824,
                65.695758
              ],
              [
                30.136594,
                65.669924
              ],
              [
                30.101821,
                65.82364
              ],
              [
                29.921632,
                66.125907
              ],
              [
                29.703508,
                66.271873
              ],
              [
                29.583333,
                66.416667
              ],
              [
                35.083333,
                66.333333
              ],
              [
                36.65,
                66.0
              ],
              [
                35.166667,
                65.066667
              ],
              [
                36.0,
                64.55
              ],
              [
                36.433333,
                63.833333
              ],
              [
                37.1,
                61.983333
              ],
              [
                37.283333,
                61.333333
              ],
              [
                36.65,
                61.25
              ],
              [
                35.533333,
                61.066667
              ],
              [
                33.919633,
                61.178098
              ],
              [
                32.617778,
                61.268611
              ],
              [
                30.595278,
                61.257778
              ],
              [
                29.586213,
                61.494456
              ],
              [
                29.735768,
                61.574481
              ]
            ]
          ]
        ]
      }
    },
    {
      "type": "Feature",
      "id": "R6",
      "properties": {
        "floor": 0,
        "ceiling": 999
      },
      "geometry": {
        "type": "MultiPolygon",
        "coordinates": [
          [
            [
              [
                31.166667,
                56.916666
              ],
              [
                31.124722,
                56.703889
              ],
              [
                30.950789,
                55.603111
              ],
              [
                30.916667,
                55.616667
              ],
              [
                30.850983,
                55.626445
              ],
              [
                30.812531,
                55.589987
              ],
              [
                30.768585,
                55.589211
              ],
              [
                30.72876,
                55.662095
              ],
              [
                30.697174,
                55.656672
              ],
              [
                30.691681,
                55.632648
              ],
              [
                30.675201,
                55.634198
              ],
              [
                30.654602,
                55.704677
              ],
              [
                30.592804,
                55.747212
              ],
              [
                30.532379,
                55.750304
              ],
              [
                30.488889,
                55.8075
              ],
              [
                30.374451,
                55.807456
              ],
              [
                30.338745,
                55.835229
              ],
              [
                30.287933,
                55.832915
              ],
              [
                30.281067,
                55.866065
              ],
              [
                30.172577,
                55.862212
              ],
              [
                30.116272,
                55.831373
              ],
              [
                29.984436,
                55.867606
              ],
              [
                29.893799,
                55.86067
              ],
              [
                29.778442,
                55.775801
              ],
              [
                29.75235,
                55.800509
              ],
              [
                29.624634,
                55.776573
              ],
              [
                29.509277,
                55.701581
              ],
              [
                29.358215,
                55.757259
              ],
              [
                29.396667,
                55.899956
              ],
              [
                29.481812,
                55.916121
              ],
              [
                29.443359,
                55.958426
              ],
              [
                29.275818,
                55.993773
              ],
              [
                29.219513,
                55.989164
              ],
              [
                29.156342,
                56.02525
              ],
              [
                29.08905,
                56.030622
              ],
              [
                28.861084,
                55.986092
              ],
              [
                28.843231,
                55.957657
              ],
              [
                28.745728,
                55.965344
              ],
              [
                28.639984,
                56.074335
              ],
              [
                28.681183,
                56.100386
              ],
              [
                28.547974,
                56.11417
              ],
              [
                28.423004,
                56.087362
              ],
              [
                28.401031,
                56.111107
              ],
              [
                28.374939,
                56.10881
              ],
              [
                28.373566,
                56.059003
              ],
              [
                28.320007,
                56.058236
              ],
              [
                28.276062,
                56.094258
              ],
              [
                28.262329,
                56.085064
              ],
              [
                28.24173,
                56.087362
              ],
              [
                28.24585,
                56.116467
              ],
              [
                28.159332,
                56.144784
              ],
              [
                28.151389,
                56.165833
              ],
              [
                28.1869,
                56.1774
              ],
              [
                28.187373206447347,
                56.19309468050367
              ],
              [
                28.1875,
                56.1973
              ],
              [
                28.2052,
                56.2094
              ],
              [
                28.1893,
                56.2266
              ],
              [
                28.2106,
                56.2421
              ],
              [
                28.2291,
                56.2578
              ],
              [
                28.2472,
                56.2793
              ],
              [
                28.2336,
                56.2979
              ],
              [
                28.2204,
                56.3139
              ],
              [
                28.2091,
                56.3362
              ],
              [
                28.1991,
                56.3523
              ],
              [
                28.1813,
                56.368
              ],
              [
                28.1756,
                56.3858
              ],
              [
                28.1944,
                56.4056
              ],
              [
                28.1884,
                56.4287
              ],
              [
                28.1789,
                56.4498
              ],
              [
                28.157,
                56.4681
              ],
              [
                28.1425,
                56.478611
              ],
              [
                28.1291,
                56.4872
              ],
              [
                28.1329,
                56.5105
              ],
              [
                28.1095,
                56.5216
              ],
              [
                28.1223,
                56.5396
              ],
              [
                28.1496,
                56.5521
              ],
              [
                28.142,
                56.5717
              ],
              [
                28.1188,
                56.5829
              ],
              [
                28.0882,
                56.5857
              ],
              [
                28.0569,
                56.5866
              ],
              [
                28.0414,
                56.6025
              ],
              [
                28.0331,
                56.6202
              ],
              [
                28.0205,
                56.6391
              ],
              [
                28.0174,
                56.6609
              ],
              [
                27.9955,
                56.6771
              ],
              [
                27.9832,
                56.6935
              ],
              [
                27.9657,
                56.714
              ],
              [
                27.938,
                56.73
              ],
              [
                27.9143,
                56.7438
              ],
              [
                27.901667,
                56.751667
              ],
              [
                27.9173,
                56.7636
              ],
              [
                27.9465,
                56.7722
              ],
              [
                27.9531,
                56.7874
              ],
              [
                27.9665,
                56.8047
              ],
              [
                27.9769,
                56.82
              ],
              [
                27.9475,
                56.8269
              ],
              [
                27.9151,
                56.8278
              ],
              [
                27.8936,
                56.8409
              ],
              [
                27.8744,
                56.8636
              ],
              [
                27.8521,
                56.8757
              ],
              [
                27.8202,
                56.8763
              ],
              [
                27.7933,
                56.8657
              ],
              [
                27.7651,
                56.8585
              ],
              [
                27.7216,
                56.8531
              ],
              [
                27.6914,
                56.8396
              ],
              [
                27.6708,
                56.8458
              ],
              [
                27.6757,
                56.8657
              ],
              [
                27.6726,
                56.8866
              ],
              [
                27.6744,
                56.9107
              ],
              [
                27.7089,
                56.9237
              ],
              [
                27.7306,
                56.938
              ],
              [
                27.7334,
                56.9585
              ],
              [
                27.7413,
                56.9813
              ],
              [
                27.7389,
                56.9979
              ],
              [
                27.7165,
                57.0152
              ],
              [
                27.7311,
                57.0298
              ],
              [
                27.7383,
                57.0464
              ],
              [
                27.7482,
                57.0647
              ],
              [
                27.757,
                57.0815
              ],
              [
                27.7306,
                57.0893
              ],
              [
                27.7327,
                57.1029
              ],
              [
                27.751,
                57.1186
              ],
              [
                27.7759,
                57.1352
              ],
              [
                27.8073,
                57.1483
              ],
              [
                27.8247,
                57.1648
              ],
              [
                27.8348,
                57.182
              ],
              [
                27.8432,
                57.1993
              ],
              [
                27.8524,
                57.2169
              ],
              [
                27.8648,
                57.2359
              ],
              [
                27.8728,
                57.2539
              ],
              [
                27.8689,
                57.2741
              ],
              [
                27.8601,
                57.2941
              ],
              [
                27.8468,
                57.3096
              ],
              [
                27.8181,
                57.323
              ],
              [
                27.7864,
                57.3364
              ],
              [
                27.7688,
                57.3519
              ],
              [
                27.7379,
                57.3597
              ],
              [
                27.7002,
                57.3709
              ],
              [
                27.6784,
                57.3829
              ],
              [
                27.6561,
                57.4005
              ],
              [
                27.6187,
                57.4169
              ],
              [
                27.5886,
                57.4222
              ],
              [
                27.5584,
                57.4306
              ],
              [
                27.5238,
                57.4398
              ],
              [
                27.5124,
                57.4581
              ],
              [
                27.5356,
                57.4699
              ],
              [
                27.5571,
                57.4823
              ],
              [
                27.5682,
                57.5011
              ],
              [
                27.559,
                57.5163
              ],
              [
                27.5502,
                57.5287
              ],
              [
                27.5297,
                57.5395
              ],
              [
                27.4937,
                57.5355
              ],
              [
                27.4517,
                57.5283
              ],
              [
                27.4181,
                57.5281
              ],
              [
                27.3853,
                57.5307
              ],
              [
                27.3561,
                57.5392
              ],
              [
                27.351389,
                57.5175
              ],
              [
                27.333333,
                57.516666
              ],
              [
                27.327777,
                57.576389
              ],
              [
                27.383333,
                57.6
              ],
              [
                27.38939,
                57.613131
              ],
              [
                27.40225,
                57.631371
              ],
              [
                27.399976657658343,
                57.633286316717204
              ],
              [
                27.38242,
                57.648078
              ],
              [
                27.387791,
                57.66505
              ],
              [
                27.40803,
                57.685457
              ],
              [
                27.43396,
                57.705233
              ],
              [
                27.459338,
                57.70732
              ],
              [
                27.49187,
                57.712939
              ],
              [
                27.524031,
                57.704801
              ],
              [
                27.54209,
                57.726001
              ],
              [
                27.53619,
                57.744282
              ],
              [
                27.52172,
                57.76241
              ],
              [
                27.50803,
                57.778259
              ],
              [
                27.508881,
                57.797098
              ],
              [
                27.532489,
                57.808019
              ],
              [
                27.559722,
                57.83
              ],
              [
                27.581461,
                57.829923
              ],
              [
                27.61416,
                57.83254
              ],
              [
                27.65484,
                57.83641
              ],
              [
                27.69046,
                57.836848
              ],
              [
                27.721149,
                57.838638
              ],
              [
                27.738841,
                57.827067
              ],
              [
                27.766801,
                57.826907
              ],
              [
                27.79679,
                57.83324
              ],
              [
                27.810891,
                57.848059
              ],
              [
                27.829051,
                57.861662
              ],
              [
                27.827749,
                57.884496
              ],
              [
                27.809722,
                57.889167
              ],
              [
                27.8133,
                57.903108
              ],
              [
                27.783211,
                57.911201
              ],
              [
                27.750291,
                57.912287
              ],
              [
                27.724951,
                57.920108
              ],
              [
                27.70167,
                57.928491
              ],
              [
                27.685209,
                57.94563
              ],
              [
                27.685473136051915,
                57.949388540418305
              ],
              [
                27.68642,
                57.962862
              ],
              [
                27.69873,
                57.978051
              ],
              [
                27.69494,
                57.99689
              ],
              [
                27.67157,
                58.005489
              ],
              [
                27.635059,
                58.001351
              ],
              [
                27.61298,
                58.0163
              ],
              [
                27.609444,
                58.038611
              ],
              [
                28.782778,
                58.191111
              ],
              [
                29.134444,
                58.175278
              ],
              [
                29.534444,
                58.392778
              ],
              [
                29.829167,
                58.5125
              ],
              [
                30.319444,
                58.5025
              ],
              [
                30.514167,
                58.356667
              ],
              [
                30.66,
                57.972778
              ],
              [
                31.071389,
                57.762778
              ],
              [
                32.55,
                57.35
              ],
              [
                31.166667,
                56.916666
              ]
            ]
          ]
        ]
      }
    },
    {
      "type": "Feature",
      "id": "ULLL-APP",
      "properties": {
        "floor": 40,
        "ceiling": 140
      },
      "geometry": {
        "type": "MultiPolygon",
        "coordinates": [
          [
            [
              [
                28.631667,
                60.186667
              ],
              [
                29.802222,
                60.338889
              ],
              [
                31.508056,
                60.147222
              ],
              [
                32.293056,
                60.060833
              ],
              [
                32.338333,
                59.815556
              ],
              [
                32.11,
                59.531944
              ],
              [
                31.811944,
                59.106111
              ],
              [
                30.838056,
                59.120278
              ],
              [
                29.186944,
                58.999722
              ],
              [
                28.488333,
                59.278889
              ],
              [
                29.024444,
                59.623056
              ],
              [
                29.017222,
                59.734722
              ],
              [
                28.631667,
                60.186667
              ]
            ]
          ]
        ]
      }
    },
    {
      "type": "Feature",
      "id": "ULLI-APP",
      "properties": {
        "floor": 10,
        "ceiling": 80
      },
      "geometry": {
        "type": "MultiPolygon",
        "coordinates": [
          [
            [
              [
                29.534167,
                60.0925
              ],
              [
                29.649722,
                60.077222
              ],
              [
                29.843333,
                60.051667
              ],
              [
                30.15,
                60.061667
              ],
              [
                30.378056,
                60.068611
              ],
              [
                30.61,
                60.075
              ],
              [
                31.156111,
                59.889444
              ],
              [
                31.241111,
                59.741944
              ],
              [
                31.166944,
                59.585
              ],
              [
                30.935556,
                59.488056
              ],
              [
                30.615833,
                59.5325
              ],
              [
                29.831111,
                59.495
              ],
              [
                29.606111,
                59.505
              ],
              [
                29.368889,
                59.699444
              ],
              [
                29.280556,
                59.8425
              ],
              [
                29.315556,
                59.9925
              ],
              [
                29.534167,
                60.0925
              ]
            ]
          ]
        ]
      }
    }
  ]
}